HAWK-5A                 
1 52757U 22057AB  26153.85129206  .00020386  00000+0  35414-3 0  9990
2 52757  97.6589 311.7818 0006084 122.0269 238.1574 15.50847928224121
HAWK-6B                 
1 55324U 23011A   26155.91989988  .00005215  00000+0  22639-3 0  9993
2 55324  40.4987  63.6176 0004325 296.0224  64.0140 15.22817837185970
HAWK-6C                 
1 55326U 23011C   26152.18110870  .00004723  00000+0  20602-3 0  9998
2 55326  40.4977  82.2594 0004869 269.1166  90.9085 15.22781975185419
HAWK-6A                 
1 55327U 23011D   26154.93557039  .00005103  00000+0  22176-3 0  9997
2 55327  40.4989  67.8204 0004466 281.7872  78.2436 15.22808523185831
HAWK-7A                 
1 56191U 23054P   26154.74475124  .00001898  00000+0  73869-4 0  9990
2 56191  97.2671  42.4316 0004029  97.2300 262.9398 15.27201148174970
HAWK-7B                 
1 56193U 23054R   26155.66197125  .00006588  00000+0  24955-3 0  9998
2 56193  97.2736  41.5776 0004023  93.1707 266.9993 15.27226878175113
HAWK-7C                 
1 56200U 23054Y   26155.66185246  .00006401  00000+0  24254-3 0  9994
2 56200  97.2715  42.3498 0004139  85.6061 274.5651 15.27224302175112
